{"type": "FeatureCollection", "features": [{"type": "Feature", "properties": {"norad_id": 2807, "name": "OPS 7218 (TRANSIT 16)", "group": "nnss", "lat": 51.40418805434648, "lon": -5.233284768424244, "alt_km": 1064.9686618263304, "timestamp": "2025-12-02T10:50:47.542369+00:00", "meta": {"OBJECT_NAME": "OPS 7218 (TRANSIT 16)", "OBJECT_ID": "1967-048A", "EPOCH": "2025-12-02T03:48:58.538304", "MEAN_MOTION": 13.50719083, "ECCENTRICITY": 0.002139, "INCLINATION": 89.6737, "RA_OF_ASC_NODE": 354.3673, "ARG_OF_PERICENTER": 142.6225, "MEAN_ANOMALY": 285.552, "EPHEMERIS_TYPE": 0, "CLASSIFICATION_TYPE": "U", "NORAD_CAT_ID": 2807, "ELEMENT_SET_NO": 999, "REV_AT_EPOCH": 88133, "BSTAR": 0.00020275, "MEAN_MOTION_DOT": 1.41e-06, "MEAN_MOTION_DDOT": 0}, "tle": {"line1": "1 02807U 67048A   25336.15901086  .00000141  00000+0  20275-3 0  9995", "line2": "2 02807  89.6737 354.3673 0021390 142.6225 285.5520 13.50719083881334"}}, "geometry": {"type": "Point", "coordinates": [-5.233284768424244, 51.40418805434648]}}, {"type": "Feature", "properties": {"norad_id": 2965, "name": "OPS 4947 (TRANSIT 17)", "group": "nnss", "lat": 15.567550293353595, "lon": 25.428690292965868, "alt_km": 1071.9393737068758, "timestamp": "2025-12-02T10:50:47.542394+00:00", "meta": {"OBJECT_NAME": "OPS 4947 (TRANSIT 17)", "OBJECT_ID": "1967-092A", "EPOCH": "2025-12-02T03:56:14.949024", "MEAN_MOTION": 13.53449539, "ECCENTRICITY": 0.0045741, "INCLINATION": 89.2508, "RA_OF_ASC_NODE": 25.2417, "ARG_OF_PERICENTER": 266.3193, "MEAN_ANOMALY": 147.0431, "EPHEMERIS_TYPE": 0, "CLASSIFICATION_TYPE": "U", "NORAD_CAT_ID": 2965, "ELEMENT_SET_NO": 999, "REV_AT_EPOCH": 86954, "BSTAR": 0.00020524, "MEAN_MOTION_DOT": 1.5e-06, "MEAN_MOTION_DDOT": 0}, "tle": {"line1": "1 02965U 67092A   25336.16406191  .00000150  00000+0  20524-3 0  9994", "line2": "2 02965  89.2508  25.2417 0045741 266.3193 147.0431 13.53449539869546"}}, "geometry": {"type": "Point", "coordinates": [25.428690292965868, 15.567550293353595]}}, {"type": "Feature", "properties": {"norad_id": 3133, "name": "OPS 7034 (TRANSIT 18)", "group": "nnss", "lat": -54.77076887128069, "lon": 93.57239157875219, "alt_km": 1029.3640537641777, "timestamp": "2025-12-02T10:50:47.542408+00:00", "meta": {"OBJECT_NAME": "OPS 7034 (TRANSIT 18)", "OBJECT_ID": "1968-012A", "EPOCH": "2025-12-02T02:38:24.343008", "MEAN_MOTION": 13.51561982, "ECCENTRICITY": 0.0072869, "INCLINATION": 90.0267, "RA_OF_ASC_NODE": 273.6093, "ARG_OF_PERICENTER": 200.0902, "MEAN_ANOMALY": 171.388, "EPHEMERIS_TYPE": 0, "CLASSIFICATION_TYPE": "U", "NORAD_CAT_ID": 3133, "ELEMENT_SET_NO": 999, "REV_AT_EPOCH": 56775, "BSTAR": 0.00013268, "MEAN_MOTION_DOT": 9.7e-07, "MEAN_MOTION_DDOT": 0}, "tle": {"line1": "1 03133U 68012A   25336.11000397  .00000097  00000+0  13268-3 0  9995", "line2": "2 03133  90.0267 273.6093 0072869 200.0902 171.3880 13.51561982567750"}}, "geometry": {"type": "Point", "coordinates": [93.57239157875219, -54.77076887128069]}}, {"type": "Feature", "properties": {"norad_id": 4507, "name": "NNSS 19 (TRANSIT 19)", "group": "nnss", "lat": -33.22428084710244, "lon": 54.52282269670971, "alt_km": 1115.878198952798, "timestamp": "2025-12-02T10:50:47.542421+00:00", "meta": {"OBJECT_NAME": "NNSS 19 (TRANSIT 19)", "OBJECT_ID": "1970-067A", "EPOCH": "2025-12-02T02:40:18.727104", "MEAN_MOTION": 13.51310591, "ECCENTRICITY": 0.0171284, "INCLINATION": 90.0056, "RA_OF_ASC_NODE": 234.5263, "ARG_OF_PERICENTER": 324.3852, "MEAN_ANOMALY": 34.5964, "EPHEMERIS_TYPE": 0, "CLASSIFICATION_TYPE": "U", "NORAD_CAT_ID": 4507, "ELEMENT_SET_NO": 999, "REV_AT_EPOCH": 72078, "BSTAR": 0.0002359, "MEAN_MOTION_DOT": 1.76e-06, "MEAN_MOTION_DDOT": 0}, "tle": {"line1": "1 04507U 70067A   25336.11132786  .00000176  00000+0  23590-3 0  9999", "line2": "2 04507  90.0056 234.5263 0171284 324.3852  34.5964 13.51310591720787"}}, "geometry": {"type": "Point", "coordinates": [54.52282269670971, -33.22428084710244]}}, {"type": "Feature", "properties": {"norad_id": 6909, "name": "NNSS 20 (TRANSIT 20)", "group": "nnss", "lat": -84.35364173865086, "lon": 76.66997392512778, "alt_km": 1106.6478816327635, "timestamp": "2025-12-02T10:50:47.542432+00:00", "meta": {"OBJECT_NAME": "NNSS 20 (TRANSIT 20)", "OBJECT_ID": "1973-081A", "EPOCH": "2025-12-02T00:49:04.315008", "MEAN_MOTION": 13.71426833, "ECCENTRICITY": 0.0156429, "INCLINATION": 89.8556, "RA_OF_ASC_NODE": 255.2147, "ARG_OF_PERICENTER": 110.0227, "MEAN_ANOMALY": 251.7855, "EPHEMERIS_TYPE": 0, "CLASSIFICATION_TYPE": "U", "NORAD_CAT_ID": 6909, "ELEMENT_SET_NO": 999, "REV_AT_EPOCH": 80214, "BSTAR": 0.00024394, "MEAN_MOTION_DOT": 2.51e-06, "MEAN_MOTION_DDOT": 0}, "tle": {"line1": "1 06909U 73081A   25336.03407772  .00000251  00000+0  24394-3 0  9994", "line2": "2 06909  89.8556 255.2147 0156429 110.0227 251.7855 13.71426833802149"}}, "geometry": {"type": "Point", "coordinates": [76.66997392512778, -84.35364173865086]}}, {"type": "Feature", "properties": {"norad_id": 10457, "name": "TRANSAT", "group": "nnss", "lat": -52.18119178022042, "lon": 78.50758629339367, "alt_km": 1082.4845072352537, "timestamp": "2025-12-02T10:50:47.542444+00:00", "meta": {"OBJECT_NAME": "TRANSAT", "OBJECT_ID": "1977-106A", "EPOCH": "2025-12-02T01:17:02.439744", "MEAN_MOTION": 13.48940886, "ECCENTRICITY": 0.0024441, "INCLINATION": 89.6482, "RA_OF_ASC_NODE": 78.9752, "ARG_OF_PERICENTER": 221.0927, "MEAN_ANOMALY": 312.7774, "EPHEMERIS_TYPE": 0, "CLASSIFICATION_TYPE": "U", "NORAD_CAT_ID": 10457, "ELEMENT_SET_NO": 999, "REV_AT_EPOCH": 36599, "BSTAR": 0.00011583, "MEAN_MOTION_DOT": 8.3e-07, "MEAN_MOTION_DDOT": 0}, "tle": {"line1": "1 10457U 77106A   25336.05350046  .00000083  00000+0  11583-3 0  9991", "line2": "2 10457  89.6482  78.9752 0024441 221.0927 312.7774 13.48940886365996"}}, "geometry": {"type": "Point", "coordinates": [78.50758629339367, -52.18119178022042]}}, {"type": "Feature", "properties": {"norad_id": 12458, "name": "NOVA 1", "group": "nnss", "lat": 78.20984317034372, "lon": 92.23949950036373, "alt_km": 1157.6305509635595, "timestamp": "2025-12-02T10:50:47.542455+00:00", "meta": {"OBJECT_NAME": "NOVA 1", "OBJECT_ID": "1981-044A", "EPOCH": "2025-12-02T02:15:01.289952", "MEAN_MOTION": 13.23276665, "ECCENTRICITY": 0.001555, "INCLINATION": 89.8521, "RA_OF_ASC_NODE": 91.5356, "ARG_OF_PERICENTER": 130.2253, "MEAN_ANOMALY": 42.864, "EPHEMERIS_TYPE": 0, "CLASSIFICATION_TYPE": "U", "NORAD_CAT_ID": 12458, "ELEMENT_SET_NO": 999, "REV_AT_EPOCH": 15045, "BSTAR": 0.00012396, "MEAN_MOTION_DOT": 6.2e-07, "MEAN_MOTION_DDOT": 0}, "tle": {"line1": "1 12458U 81044A   25336.09376493  .00000062  00000+0  12396-3 0  9998", "line2": "2 12458  89.8521  91.5356 0015550 130.2253  42.8640 13.23276665150456"}}, "geometry": {"type": "Point", "coordinates": [92.23949950036373, 78.20984317034372]}}, {"type": "Feature", "properties": {"norad_id": 15362, "name": "NOVA 3", "group": "nnss", "lat": -40.618734718160866, "lon": 80.51855239039817, "alt_km": 1161.870926322371, "timestamp": "2025-12-02T10:50:47.542467+00:00", "meta": {"OBJECT_NAME": "NOVA 3", "OBJECT_ID": "1984-110A", "EPOCH": "2025-12-02T01:02:04.583040", "MEAN_MOTION": 13.23042528, "ECCENTRICITY": 0.0031361, "INCLINATION": 90.1224, "RA_OF_ASC_NODE": 80.4087, "ARG_OF_PERICENTER": 1.9912, "MEAN_ANOMALY": 171.6056, "EPHEMERIS_TYPE": 0, "CLASSIFICATION_TYPE": "U", "NORAD_CAT_ID": 15362, "ELEMENT_SET_NO": 999, "REV_AT_EPOCH": 98557, "BSTAR": 0.00012155, "MEAN_MOTION_DOT": 6e-07, "MEAN_MOTION_DDOT": 0}, "tle": {"line1": "1 15362U 84110A   25336.04310860  .00000060  00000+0  12155-3 0  9994", "line2": "2 15362  90.1224  80.4087 0031361   1.9912 171.6056 13.23042528985570"}}, "geometry": {"type": "Point", "coordinates": [80.51855239039817, -40.618734718160866]}}, {"type": "Feature", "properties": {"norad_id": 15935, "name": "OSCAR 30", "group": "nnss", "lat": -81.10224197622283, "lon": 100.73043199593374, "alt_km": 1254.7126949441335, "timestamp": "2025-12-02T10:50:47.542478+00:00", "meta": {"OBJECT_NAME": "OSCAR 30", "OBJECT_ID": "1985-066A", "EPOCH": "2025-12-02T03:07:39.287712", "MEAN_MOTION": 13.36075474, "ECCENTRICITY": 0.0169312, "INCLINATION": 90.1645, "RA_OF_ASC_NODE": 99.6738, "ARG_OF_PERICENTER": 113.5184, "MEAN_ANOMALY": 58.873, "EPHEMERIS_TYPE": 0, "CLASSIFICATION_TYPE": "U", "NORAD_CAT_ID": 15935, "ELEMENT_SET_NO": 999, "REV_AT_EPOCH": 96311, "BSTAR": 0.00018318, "MEAN_MOTION_DOT": 1.12e-06, "MEAN_MOTION_DDOT": 0}, "tle": {"line1": "1 15935U 85066A   25336.13031583  .00000112  00000+0  18318-3 0  9998", "line2": "2 15935  90.1645  99.6738 0169312 113.5184  58.8730 13.36075474963118"}}, "geometry": {"type": "Point", "coordinates": [100.73043199593374, -81.10224197622283]}}, {"type": "Feature", "properties": {"norad_id": 15936, "name": "OSCAR 24", "group": "nnss", "lat": -2.729087504135736, "lon": 92.13196767793714, "alt_km": 1193.2621147057507, "timestamp": "2025-12-02T10:50:47.542489+00:00", "meta": {"OBJECT_NAME": "OSCAR 24", "OBJECT_ID": "1985-066B", "EPOCH": "2025-12-02T02:43:26.317056", "MEAN_MOTION": 13.35933196, "ECCENTRICITY": 0.0170339, "INCLINATION": 90.1786, "RA_OF_ASC_NODE": 92.1175, "ARG_OF_PERICENTER": 120.0052, "MEAN_ANOMALY": 52.3274, "EPHEMERIS_TYPE": 0, "CLASSIFICATION_TYPE": "U", "NORAD_CAT_ID": 15936, "ELEMENT_SET_NO": 999, "REV_AT_EPOCH": 96501, "BSTAR": 0.00011728, "MEAN_MOTION_DOT": 7.5e-07, "MEAN_MOTION_DDOT": 0}, "tle": {"line1": "1 15936U 85066B   25336.11349904  .00000075  00000+0  11728-3 0  9992", "line2": "2 15936  90.1786  92.1175 0170339 120.0052  52.3274 13.35933196965012"}}, "geometry": {"type": "Point", "coordinates": [92.13196767793714, -2.729087504135736]}}]}